GLOBALSTAR M057 [-]     
1 25943U 99058A   24051.32216080 -.00000037  00000+0  51117-3 0  9996
2 25943  51.9970 278.5181 0003427  88.0126 272.1116 12.24780042107760
GLOBALSTAR M059 [-]     
1 25944U 99058B   24051.48486360  .00000005  00000+0  11262-2 0  9994
2 25944  52.0018  73.0120 0000669 123.6908  24.8192 11.99963803516091
GLOBALSTAR M056 [-]     
1 25945U 99058C   24051.38945078 -.00000110  00000+0 -26092-3 0  9997
2 25945  51.9962  87.6313 0000670 281.2597  91.3297 12.04773354104433
GLOBALSTAR M031 [-]     
1 25946U 99058D   24051.60848928 -.00000072  00000+0  18494-3 0  9992
2 25946  51.9995   8.2356 0001199 289.0216 242.2249 12.16003762106075
GLOBALSTAR M039 [-]     
1 25961U 99062A   24051.39530340 -.00000030  00000+0  41162-3 0  9998
2 25961  51.9851 299.1547 0003119  12.2318 347.8624 12.62282755119243
GLOBALSTAR M034 [-]     
1 25962U 99062B   24051.63312806 -.00000125  00000+0 -70461-3 0  9991
2 25962  51.9856 185.7218 0014017 206.1919 167.0816 11.79424024 81454
GLOBALSTAR M029 [-]     
1 25963U 99062C   24051.46610380 -.00000066  00000+0  25240-3 0  9999
2 25963  51.9829 321.5167 0001954 253.1331 277.8137 11.99873898111172
GLOBALSTAR M061 [-]     
1 25964U 99062D   24051.59931534 -.00000078  00000+0  42482-4 0  9992
2 25964  51.9825   3.4503 0006069 134.9269  36.1474 11.76758721 64367
